[{"OBJECT_NAME":"ONEWEB-0583","OBJECT_ID":"2022-166J","EPOCH":"2026-02-12T04:01:53.376096","MEAN_MOTION":13.21824392,"ECCENTRICITY":0.0001503,"INCLINATION":87.9177,"RA_OF_ASC_NODE":268.939,"ARG_OF_PERICENTER":79.192,"MEAN_ANOMALY":280.9383,"EPHEMERIS_TYPE":0,"CLASSIFICATION_TYPE":"U","NORAD_CAT_ID":54650,"ELEMENT_SET_NO":999,"REV_AT_EPOCH":15501,"BSTAR":-4.429834e-6,"MEAN_MOTION_DOT":1.1e-7,"MEAN_MOTION_DDOT":0},{"OBJECT_NAME":"ONEWEB-0584","OBJECT_ID":"2022-166K","EPOCH":"2026-02-12T02:41:19.822272","MEAN_MOTION":13.2182462,"ECCENTRICITY":0.0001692,"INCLINATION":87.9183,"RA_OF_ASC_NODE":268.9376,"ARG_OF_PERICENTER":73.9014,"MEAN_ANOMALY":286.2306,"EPHEMERIS_TYPE":0,"CLASSIFICATION_TYPE":"U","NORAD_CAT_ID":54651,"ELEMENT_SET_NO":999,"REV_AT_EPOCH":15499,"BSTAR":0.00027414608,"MEAN_MOTION_DOT":1.26e-6,"MEAN_MOTION_DDOT":0},{"OBJECT_NAME":"ONEWEB-0585","OBJECT_ID":"2022-166L","EPOCH":"2026-02-12T03:16:52.660704","MEAN_MOTION":13.21826422,"ECCENTRICITY":0.00016265,"INCLINATION":87.918,"RA_OF_ASC_NODE":268.9167,"ARG_OF_PERICENTER":92.0252,"MEAN_ANOMALY":268.1069,"EPHEMERIS_TYPE":0,"CLASSIFICATION_TYPE":"U","NORAD_CAT_ID":54652,"ELEMENT_SET_NO":999,"REV_AT_EPOCH":15500,"BSTAR":-5.2940619e-5,"MEAN_MOTION_DOT":-9.0e-8,"MEAN_MOTION_DDOT":0},{"OBJECT_NAME":"ONEWEB-0586","OBJECT_ID":"2022-166M","EPOCH":"2026-02-12T03:35:50.731008","MEAN_MOTION":13.21826506,"ECCENTRICITY":0.00015068,"INCLINATION":87.9184,"RA_OF_ASC_NODE":268.9393,"ARG_OF_PERICENTER":80.0362,"MEAN_ANOMALY":280.0942,"EPHEMERIS_TYPE":0,"CLASSIFICATION_TYPE":"U","NORAD_CAT_ID":54653,"ELEMENT_SET_NO":999,"REV_AT_EPOCH":15500,"BSTAR":-0.00016633718,"MEAN_MOTION_DOT":-5.6e-7,"MEAN_MOTION_DDOT":0},{"OBJECT_NAME":"ONEWEB-0587","OBJECT_ID":"2022-166N","EPOCH":"2026-02-12T03:50:04.108128","MEAN_MOTION":13.21825508,"ECCENTRICITY":0.00016566,"INCLINATION":87.9193,"RA_OF_ASC_NODE":268.8993,"ARG_OF_PERICENTER":102.6481,"MEAN_ANOMALY":257.4839,"EPHEMERIS_TYPE":0,"CLASSIFICATION_TYPE":"U","NORAD_CAT_ID":54654,"ELEMENT_SET_NO":999,"REV_AT_EPOCH":15516,"BSTAR":5.3012348e-5,"MEAN_MOTION_DOT":3.5e-7,"MEAN_MOTION_DDOT":0},{"OBJECT_NAME":"ONEWEB-0589","OBJECT_ID":"2022-166P","EPOCH":"2026-02-12T03:31:05.590272","MEAN_MOTION":13.21825216,"ECCENTRICITY":0.00019014,"INCLINATION":87.9183,"RA_OF_ASC_NODE":268.9295,"ARG_OF_PERICENTER":59.1788,"MEAN_ANOMALY":300.9533,"EPHEMERIS_TYPE":0,"CLASSIFICATION_TYPE":"U","NORAD_CAT_ID":54655,"ELEMENT_SET_NO":999,"REV_AT_EPOCH":15502,"BSTAR":-0.0001207874,"MEAN_MOTION_DOT":-3.7e-7,"MEAN_MOTION_DDOT":0},{"OBJECT_NAME":"ONEWEB-0590","OBJECT_ID":"2022-166Q","EPOCH":"2026-02-12T04:06:26.444160","MEAN_MOTION":13.21825268,"ECCENTRICITY":0.00020126,"INCLINATION":87.9184,"RA_OF_ASC_NODE":268.9027,"ARG_OF_PERICENTER":85.1858,"MEAN_ANOMALY":274.9505,"EPHEMERIS_TYPE":0,"CLASSIFICATION_TYPE":"U","NORAD_CAT_ID":54656,"ELEMENT_SET_NO":999,"REV_AT_EPOCH":15501,"BSTAR":0.00033672005,"MEAN_MOTION_DOT":1.52e-6,"MEAN_MOTION_DDOT":0},{"OBJECT_NAME":"ONEWEB-0591","OBJECT_ID":"2022-166R","EPOCH":"2026-02-12T02:34:13.733760","MEAN_MOTION":13.21826625,"ECCENTRICITY":0.00016385,"INCLINATION":87.9183,"RA_OF_ASC_NODE":268.9387,"ARG_OF_PERICENTER":83.2996,"MEAN_ANOMALY":276.8324,"EPHEMERIS_TYPE":0,"CLASSIFICATION_TYPE":"U","NORAD_CAT_ID":54657,"ELEMENT_SET_NO":999,"REV_AT_EPOCH":15503,"BSTAR":0.00018545856,"MEAN_MOTION_DOT":9.0e-7,"MEAN_MOTION_DDOT":0},{"OBJECT_NAME":"ONEWEB-0592","OBJECT_ID":"2022-166S","EPOCH":"2026-02-12T02:38:58.906464","MEAN_MOTION":13.21826112,"ECCENTRICITY":0.00016062,"INCLINATION":87.919,"RA_OF_ASC_NODE":268.9067,"ARG_OF_PERICENTER":82.9425,"MEAN_ANOMALY":277.1892,"EPHEMERIS_TYPE":0,"CLASSIFICATION_TYPE":"U","NORAD_CAT_ID":54658,"ELEMENT_SET_NO":999,"REV_AT_EPOCH":15491,"BSTAR":0.00027093699,"MEAN_MOTION_DOT":1.25e-6,"MEAN_MOTION_DDOT":0},{"OBJECT_NAME":"ONEWEB-0593","OBJECT_ID":"2022-166T","EPOCH":"2026-02-12T01:23:08.208096","MEAN_MOTION":13.21823953,"ECCENTRICITY":0.00014894,"INCLINATION":87.9183,"RA_OF_ASC_NODE":268.938,"ARG_OF_PERICENTER":83.9805,"MEAN_ANOMALY":276.1498,"EPHEMERIS_TYPE":0,"CLASSIFICATION_TYPE":"U","NORAD_CAT_ID":54659,"ELEMENT_SET_NO":999,"REV_AT_EPOCH":15501,"BSTAR":-6.357161e-6,"MEAN_MOTION_DOT":1.0e-7,"MEAN_MOTION_DDOT":0},{"OBJECT_NAME":"ONEWEB-0594","OBJECT_ID":"2022-166U","EPOCH":"2026-02-12T03:40:34.823712","MEAN_MOTION":13.21826749,"ECCENTRICITY":0.00015215,"INCLINATION":87.9179,"RA_OF_ASC_NODE":268.9378,"ARG_OF_PERICENTER":90.2039,"MEAN_ANOMALY":269.9269,"EPHEMERIS_TYPE":0,"CLASSIFICATION_TYPE":"U","NORAD_CAT_ID":54660,"ELEMENT_SET_NO":999,"REV_AT_EPOCH":15504,"BSTAR":-9.2066242e-5,"MEAN_MOTION_DOT":-2.5e-7,"MEAN_MOTION_DDOT":0},{"OBJECT_NAME":"ONEWEB-0595","OBJECT_ID":"2022-166V","EPOCH":"2026-02-12T03:07:23.995776","MEAN_MOTION":13.21825613,"ECCENTRICITY":0.00016705,"INCLINATION":87.9182,"RA_OF_ASC_NODE":268.9134,"ARG_OF_PERICENTER":92.2086,"MEAN_ANOMALY":267.924,"EPHEMERIS_TYPE":0,"CLASSIFICATION_TYPE":"U","NORAD_CAT_ID":54661,"ELEMENT_SET_NO":999,"REV_AT_EPOCH":15501,"BSTAR":0.00020094503,"MEAN_MOTION_DOT":9.6e-7,"MEAN_MOTION_DDOT":0},{"OBJECT_NAME":"ONEWEB-0596","OBJECT_ID":"2022-166W","EPOCH":"2026-02-12T04:18:29.390976","MEAN_MOTION":13.21825793,"ECCENTRICITY":0.00016566,"INCLINATION":87.9185,"RA_OF_ASC_NODE":268.922,"ARG_OF_PERICENTER":87.2771,"MEAN_ANOMALY":272.8552,"EPHEMERIS_TYPE":0,"CLASSIFICATION_TYPE":"U","NORAD_CAT_ID":54662,"ELEMENT_SET_NO":999,"REV_AT_EPOCH":15502,"BSTAR":8.8902304e-5,"MEAN_MOTION_DOT":5.0e-7,"MEAN_MOTION_DDOT":0},{"OBJECT_NAME":"ONEWEB-0597","OBJECT_ID":"2022-166X","EPOCH":"2026-02-12T03:52:25.047264","MEAN_MOTION":13.21824411,"ECCENTRICITY":0.00015781,"INCLINATION":87.9182,"RA_OF_ASC_NODE":268.9311,"ARG_OF_PERICENTER":85.3405,"MEAN_ANOMALY":274.7909,"EPHEMERIS_TYPE":0,"CLASSIFICATION_TYPE":"U","NORAD_CAT_ID":54663,"ELEMENT_SET_NO":999,"REV_AT_EPOCH":15502,"BSTAR":3.3823489e-5,"MEAN_MOTION_DOT":2.7e-7,"MEAN_MOTION_DDOT":0},{"OBJECT_NAME":"ONEWEB-0600","OBJECT_ID":"2022-166Y","EPOCH":"2026-02-12T03:26:22.217280","MEAN_MOTION":13.21814032,"ECCENTRICITY":0.0001405,"INCLINATION":87.9183,"RA_OF_ASC_NODE":268.9259,"ARG_OF_PERICENTER":80.4536,"MEAN_ANOMALY":279.6756,"EPHEMERIS_TYPE":0,"CLASSIFICATION_TYPE":"U","NORAD_CAT_ID":54664,"ELEMENT_SET_NO":999,"REV_AT_EPOCH":15499,"BSTAR":-0.0026341007,"MEAN_MOTION_DOT":-1.075e-5,"MEAN_MOTION_DDOT":0},{"OBJECT_NAME":"ONEWEB-0601","OBJECT_ID":"2022-166Z","EPOCH":"2026-02-12T03:14:30.074784","MEAN_MOTION":13.21824305,"ECCENTRICITY":0.00016565,"INCLINATION":87.9181,"RA_OF_ASC_NODE":268.9449,"ARG_OF_PERICENTER":75.8337,"MEAN_ANOMALY":284.2981,"EPHEMERIS_TYPE":0,"CLASSIFICATION_TYPE":"U","NORAD_CAT_ID":54665,"ELEMENT_SET_NO":999,"REV_AT_EPOCH":15518,"BSTAR":2.4267915e-5,"MEAN_MOTION_DOT":2.3e-7,"MEAN_MOTION_DDOT":0},{"OBJECT_NAME":"ONEWEB-0602","OBJECT_ID":"2022-166AA","EPOCH":"2026-02-12T04:12:33.753024","MEAN_MOTION":13.21825525,"ECCENTRICITY":0.00012553,"INCLINATION":87.9184,"RA_OF_ASC_NODE":268.9418,"ARG_OF_PERICENTER":81.0852,"MEAN_ANOMALY":279.0424,"EPHEMERIS_TYPE":0,"CLASSIFICATION_TYPE":"U","NORAD_CAT_ID":54666,"ELEMENT_SET_NO":999,"REV_AT_EPOCH":15503,"BSTAR":0.00011320714,"MEAN_MOTION_DOT":6.0e-7,"MEAN_MOTION_DDOT":0}]
