ONEWEB-0583             
1 54650U 22166J   26043.16797889  .00000011  00000+0 -44298-5 0  9991
2 54650  87.9177 268.9390 0001503  79.1920 280.9383 13.21824392155015
ONEWEB-0584             
1 54651U 22166K   26043.11203498  .00000126  00000+0  27415-3 0  9991
2 54651  87.9183 268.9376 0001692  73.9014 286.2306 13.21824620154996
ONEWEB-0585             
1 54652U 22166L   26043.13672061 -.00000009  00000+0 -52941-4 0  9995
2 54652  87.9180 268.9167 0001626  92.0252 268.1069 13.21826422155005
ONEWEB-0586             
1 54653U 22166M   26043.14989272 -.00000056  00000+0 -16634-3 0  9992
2 54653  87.9184 268.9393 0001506  80.0362 280.0942 13.21826506155003
ONEWEB-0587             
1 54654U 22166N   26043.15976977  .00000035  00000+0  53012-4 0  9999
2 54654  87.9193 268.8993 0001656 102.6481 257.4839 13.21825508155169
ONEWEB-0589             
1 54655U 22166P   26043.14659248 -.00000037  00000+0 -12079-3 0  9999
2 54655  87.9183 268.9295 0001901  59.1788 300.9533 13.21825216155020
ONEWEB-0590             
1 54656U 22166Q   26043.17113940  .00000152  00000+0  33672-3 0  9995
2 54656  87.9184 268.9027 0002012  85.1858 274.9505 13.21825268155011
ONEWEB-0591             
1 54657U 22166R   26043.10710340  .00000090  00000+0  18546-3 0  9990
2 54657  87.9183 268.9387 0001638  83.2996 276.8324 13.21826625155035
ONEWEB-0592             
1 54658U 22166S   26043.11040401  .00000125  00000+0  27094-3 0  9993
2 54658  87.9190 268.9067 0001606  82.9425 277.1892 13.21826112154918
ONEWEB-0593             
1 54659U 22166T   26043.05773389  .00000010  00000+0 -63572-5 0  9992
2 54659  87.9183 268.9380 0001489  83.9805 276.1498 13.21823953155014
ONEWEB-0594             
1 54660U 22166U   26043.15318083 -.00000025  00000+0 -92066-4 0  9997
2 54660  87.9179 268.9378 0001521  90.2039 269.9269 13.21826749155040
ONEWEB-0595             
1 54661U 22166V   26043.13013884  .00000096  00000+0  20095-3 0  9995
2 54661  87.9182 268.9134 0001670  92.2086 267.9240 13.21825613155017
ONEWEB-0596             
1 54662U 22166W   26043.17950684  .00000050  00000+0  88902-4 0  9990
2 54662  87.9185 268.9220 0001656  87.2771 272.8552 13.21825793155027
ONEWEB-0597             
1 54663U 22166X   26043.16140101  .00000027  00000+0  33823-4 0  9991
2 54663  87.9182 268.9311 0001578  85.3405 274.7909 13.21824411155025
ONEWEB-0600             
1 54664U 22166Y   26043.14331270 -.00001075  00000+0 -26341-2 0  9990
2 54664  87.9183 268.9259 0001405  80.4536 279.6756 13.21814032154995
ONEWEB-0601             
1 54665U 22166Z   26043.13507031  .00000023  00000+0  24268-4 0  9998
2 54665  87.9181 268.9449 0001656  75.8337 284.2981 13.21824305155188
ONEWEB-0602             
1 54666U 22166AA  26043.17539066  .00000060  00000+0  11321-3 0  9992
2 54666  87.9184 268.9418 0001255  81.0852 279.0424 13.21825525155037
